NORAD_CAT_ID,OBJECT_NAME,OBJECT_TYPE,EPOCH,MEAN_MOTION,ECCENTRICITY,INCLINATION,RA_OF_ASC_NODE,ARG_OF_PERICENTER,MEAN_ANOMALY,BSTAR,MEAN_MOTION_DOT,MEAN_MOTION_DDOT,TLE_LINE0,TLE_LINE1,TLE_LINE2,SEMIMAJOR_AXIS,PERIOD,APOGEE,PERIGEE,DECAYED
51135.0,STARLINK-3363,PAYLOAD,2022-03-16 14:00:01,15.61334271,0.0001074,53.2174,354.9651,67.9105,269.2028,-0.0089766,-0.00713066,0.0,0 STARLINK-3363,1 51135U 22005AH  22075.58334491 -.00713066  00000-0 -89766-2 0  9990,2 51135  53.2174 354.9651 0001074  67.9105 269.2028 15.61334271  3704,6761.939,92.229,384.53,383.078,0.0
51135.0,STARLINK-3363,PAYLOAD,2022-03-16 20:00:01,15.6095399,0.0001181,53.2176,353.7495,71.6752,231.2653,-0.0091467,-0.00715707,0.0,0 STARLINK-3363,1 51135U 22005AH  22075.83334491 -.00715707  00000-0 -91467-2 0  9993,2 51135  53.2176 353.7495 0001181  71.6752 231.2653 15.60953990 10253,6763.0369999999975,92.251,385.701,384.103,0.0
51135.0,STARLINK-3363,PAYLOAD,2022-03-17 14:00:01,15.59804008,0.0001273,53.2175,350.1064,64.8695,133.489,-0.0095009,-0.00711526,0.0,0 STARLINK-3363,1 51135U 22005AH  22076.58334491 -.00711526  00000-0 -95009-2 0  9997,2 51135  53.2175 350.1064 0001273  64.8695 133.4890 15.59804008  3708,6766.361,92.319,389.087,387.364,0.0
51135.0,STARLINK-3363,PAYLOAD,2022-03-17 22:00:00,15.59295294,0.0001267,53.2177,348.4905,67.7098,203.1704,-0.009721,-0.00713743,0.0,0 STARLINK-3363,1 51135U 22005AH  22076.91667824 -.00713743  00000-0 -97210-2 0  9992,2 51135  53.2177 348.4905 0001267  67.7098 203.1704 15.59295294  3706,6767.831999999999,92.349,390.555,388.84,0.0
51135.0,STARLINK-3363,PAYLOAD,2022-03-18 06:00:00,15.58785248,0.0001047,53.2173,346.8756,75.5754,267.2138,-0.0098955,-0.00712597,0.0,0 STARLINK-3363,1 51135U 22005AH  22077.25001157 -.00712597  00000-0 -98955-2 0  9994,2 51135  53.2173 346.8756 0001047  75.5754 267.2138 15.58785248 10476,6769.309,92.38,391.882,390.465,0.0
51135.0,STARLINK-3363,PAYLOAD,2022-03-18 14:00:01,15.58273996,0.0001190999999999,53.2174,345.2591,54.0646,0.0241,-0.010078,-0.00711856,0.0,0 STARLINK-3363,1 51135U 22005AH  22077.58334491 -.00711856  00000-0 -10078-1 0  9996,2 51135  53.2174 345.2591 0001191  54.0646   0.0241 15.58273996  3718,6770.7890000000025,92.41,393.461,391.848,0.0
51135.0,STARLINK-3363,PAYLOAD,2022-03-18 22:00:00,15.57764867,0.0001375,53.2174,343.647,52.4274,72.3446,-0.010292,-0.00713015,0.0,0 STARLINK-3363,1 51135U 22005AH  22077.91667824 -.00713015  00000-0 -10292-1 0  9999,2 51135  53.2174 343.6470 0001375  52.4274  72.3446 15.57764867  3764,6772.264,92.44,395.061,393.198,0.0
51135.0,STARLINK-3363,PAYLOAD,2022-03-19 02:00:01,15.57512197,0.0001284999999999,53.2174,342.8416,54.2618,285.6861,-0.010452,-0.00716855,0.0,0 STARLINK-3363,1 51135U 22005AH  22078.08335648 -.00716855  00000-0 -10452-1 0  9997,2 51135  53.2174 342.8416 0001285  54.2618 285.6861 15.57512197 10605,6772.996999999999,92.455,395.732,393.991,0.0
51135.0,STARLINK-3363,PAYLOAD,2022-03-19 14:00:01,15.56744079,0.0001233,53.2174,340.4227,68.2713,196.0321,-0.010662,-0.00710949,0.0,0 STARLINK-3363,1 51135U 22005AH  22078.58334491 -.00710949  00000-0 -10662-1 0  9998,2 51135  53.2174 340.4227 0001233  68.2713 196.0321 15.56744079  3695,6775.225,92.501,397.925,396.254,0.0
51135.0,STARLINK-3363,PAYLOAD,2022-03-19 22:00:01,15.56236159,0.0001218,53.2175,338.8145,62.39100000000001,270.8218,-0.010925,-0.00714445,0.0,0 STARLINK-3363,1 51135U 22005AH  22078.91668981 -.00714445  00000-0 -10925-1 0  9996,2 51135  53.2175 338.8145 0001218  62.3910 270.8218 15.56236159  3728,6776.699000000001,92.531,399.389,397.73800000000006,0.0
51135.0,STARLINK-3363,PAYLOAD,2022-03-20 06:00:00,15.55725884,0.0001035,53.2172,337.2067,74.8361,326.5445,-0.011109,-0.00712892,0.0,0 STARLINK-3363,1 51135U 22005AH  22079.25001157 -.00712892  00000-0 -11109-1 0  9999,2 51135  53.2172 337.2067 0001035  74.8361 326.5445 15.55725884 10788,6778.18,92.561,400.747,399.344,0.0
51135.0,STARLINK-3363,PAYLOAD,2022-03-20 14:00:01,15.55215371,0.0001327,53.2174,335.5976,52.2516,56.7513,-0.011329,-0.00713368,0.0,0 STARLINK-3363,1 51135U 22005AH  22079.58334491 -.00713368  00000-0 -11329-1 0  9998,2 51135  53.2174 335.5976 0001327  52.2516  56.7513 15.55215371  3680,6779.6640000000025,92.592,402.42800000000005,400.629,0.0
51135.0,STARLINK-3363,PAYLOAD,2022-03-20 22:00:01,15.54703751,0.0001538,53.2175,333.99300000000005,49.68,126.3951,-0.011494,-0.00710491,0.0,0 STARLINK-3363,1 51135U 22005AH  22079.91668981 -.00710491  00000-0 -11494-1 0  9996,2 51135  53.2175 333.9930 0001538  49.6800 126.3951 15.54703751  3710,6781.151,92.622,404.059,401.973,0.0
51135.0,STARLINK-3363,PAYLOAD,2022-03-21 06:00:00,15.54197246,0.0001259,53.2171,332.3885,74.3807,168.023,-0.011808,-0.00715857,0.0,0 STARLINK-3363,1 51135U 22005AH  22080.25001157 -.00715857  00000-0 -11808-1 0  9991,2 51135  53.2171 332.3885 0001259  74.3807 168.0230 15.54197246 10942,6782.624,92.652,405.343,403.635,0.0
51135.0,STARLINK-3363,PAYLOAD,2022-03-21 14:00:01,15.53683818,0.0001215,53.2173,330.7833,63.4662,244.722,-0.01193,-0.00710251,0.0,0 STARLINK-3363,1 51135U 22005AH  22080.58334491 -.00710251  00000-0 -11930-1 0  9996,2 51135  53.2173 330.7833 0001215  63.4662 244.7220 15.53683818  3698,6784.118,92.683,406.8080000000001,405.159,0.0
51135.0,STARLINK-3363,PAYLOAD,2022-03-21 22:00:00,15.53176428,0.0001334,53.2174,329.1828,48.0831,325.2724,-0.012225,-0.00714106,0.0,0 STARLINK-3363,1 51135U 22005AH  22080.91667824 -.00714106  00000-0 -12225-1 0  9993,2 51135  53.2174 329.1828 0001334  48.0831 325.2724 15.53176428  3692,6785.596,92.713,408.366,406.556,0.0
51135.0,STARLINK-3363,PAYLOAD,2022-03-22 12:00:00,15.52281491,0.0001123,53.2174,326.3804,60.6447,335.2844,-0.012553,-0.00710108,0.0,0 STARLINK-3363,1 51135U 22005AH  22081.50001157 -.00710108  00000-0 -12553-1 0  9992,2 51135  53.2174 326.3804 0001123  60.6447 335.2844 15.52281491 11132,6788.204000000002,92.767,410.831,409.306,0.0
51135.0,STARLINK-3363,PAYLOAD,2022-03-22 14:00:01,15.52156481,0.0001311,53.2171,325.9803,60.8524,81.0045,-0.012697,-0.00714628,0.0,0 STARLINK-3363,1 51135U 22005AH  22081.58334491 -.00714628  00000-0 -12697-1 0  9990,2 51135  53.2171 325.9803 0001311  60.8524  81.0045 15.52156481  3725,6788.568,92.774,411.323,409.543,0.0
51135.0,STARLINK-3363,PAYLOAD,2022-03-22 22:00:01,15.51643953,0.0001525,53.2172,324.3833,53.3807,151.8717,-0.012845,-0.00710139,0.0,0 STARLINK-3363,1 51135U 22005AH  22081.91668981 -.00710139  00000-0 -12845-1 0  9999,2 51135  53.2172 324.3833 0001525  53.3807 151.8717 15.51643953  3704,6790.063,92.805,412.963,410.892,0.0
51135.0,STARLINK-3363,PAYLOAD,2022-03-23 14:00:01,15.50623925,0.0001230999999999,53.2173,321.1881,60.7227,269.2897,-0.013319,-0.00718881,0.0,0 STARLINK-3363,1 51135U 22005AH  22082.58334491 -.00718881  00000-0 -13319-1 0  9998,2 51135  53.2173 321.1881 0001231  60.7227 269.2897 15.50623925 11309,6793.04,92.866,415.741,414.069,0.0
51135.0,STARLINK-3363,PAYLOAD,2022-03-23 22:00:00,15.50116848,0.0001405,53.2175,319.5951,46.3084,345.1942,-0.013651,-0.00723266,0.0,0 STARLINK-3363,1 51135U 22005AH  22082.91667824 -.00723266  00000-0 -13651-1 0  9996,2 51135  53.2175 319.5951 0001405  46.3084 345.1942 15.50116848  3716,6794.522,92.896,417.341,415.432,0.0
51135.0,STARLINK-3363,PAYLOAD,2022-03-24 14:00:01,15.48978076,0.0001424,53.2174,316.4077,50.4956,102.1674,-0.00091075,-0.0005019,0.0,0 STARLINK-3363,1 51135U 22005AH  22083.58334491 -.00050190  00000-0 -91075-3 0  9998,2 51135  53.2174 316.4077 0001424  50.4956 102.1674 15.48978076  3680,6797.851,92.965,420.684,418.74800000000016,0.0
51135.0,STARLINK-3363,PAYLOAD,2022-03-24 22:00:00,15.48949055,0.0001494,53.2174,314.8188,50.3455,162.1176,-3.7899e-05,-2.527e-05,0.0,0 STARLINK-3363,1 51135U 22005AH  22083.91667824 -.00002527  00000-0 -37899-4 0  9990,2 51135  53.2174 314.8188 0001494  50.3455 162.1176 15.48949055 11514,6797.936,92.966,420.817,418.786,0.0
51135.0,STARLINK-3363,PAYLOAD,2022-03-25 06:00:00,15.49022625,0.0001098,53.2149,313.2352,47.6264,224.6741,0.00030095,0.00016157,0.0,0 STARLINK-3363,1 51135U 22005AH  22084.25001157  .00016157  00000-0  30095-3 0  9991,2 51135  53.2149 313.2352 0001098  47.6264 224.6741 15.49022625 11562,6797.721,92.962,420.332,418.84,0.0
51135.0,STARLINK-3363,PAYLOAD,2022-03-25 12:00:00,15.49035076,9.2e-05,53.215,312.0404,55.4968,171.755,0.0020619,0.00114807,0.0,0 STARLINK-3363,1 51135U 22005AH  22084.50001157  .00114807  00000-0  20619-2 0  9990,2 51135  53.2150 312.0404 0000920  55.4968 171.7550 15.49035076 11609,6797.685,92.961,420.175,418.924,0.0
51135.0,STARLINK-3363,PAYLOAD,2022-03-25 14:00:01,15.49062359,9.48e-05,53.2151,311.6427,58.0282,274.1984,0.0015935,0.00088408,0.0,0 STARLINK-3363,1 51135U 22005AH  22084.58334491  .00088408  00000-0  15935-2 0  9990,2 51135  53.2151 311.6427 0000948  58.0282 274.1984 15.49062359  3691,6797.605,92.959,420.114,418.825,0.0
51135.0,STARLINK-3363,PAYLOAD,2022-03-25 20:00:01,15.48972323,0.0001308,53.2153,310.4513,58.9151,228.0288,-6.615600000000001e-05,-4.08e-05,0.0,0 STARLINK-3363,1 51135U 22005AH  22084.83334491 -.00004080  00000-0 -66156-4 0  9997,2 51135  53.2153 310.4513 0001308  58.9151 228.0288 15.48972323 11651,6797.868,92.965,420.622,418.844,0.0
51135.0,STARLINK-3363,PAYLOAD,2022-03-25 22:00:01,15.48968099,0.0001343,53.2153,310.0539,56.4706,335.4916,0.00019598,0.00010337,0.0,0 STARLINK-3363,1 51135U 22005AH  22084.91668981  .00010337  00000-0  19598-3 0  9997,2 51135  53.2153 310.0539 0001343  56.4706 335.4916 15.48968099  3706,6797.88,92.965,420.658,418.833,0.0
51135.0,STARLINK-3363,PAYLOAD,2022-03-26 14:00:01,15.48944911,0.000151,53.2157,306.8702,66.7152,84.7992,2.2047e-05,7.64e-06,0.0,0 STARLINK-3363,1 51135U 22005AH  22085.58334491  .00000764  00000-0  22047-4 0  9994,2 51135  53.2157 306.8702 0001510  66.7152  84.7992 15.48944911  3660,6797.948,92.967,420.84,418.787,0.0
